[{"OBJECT_NAME":"OBJECT J","OBJECT_ID":"2023-085J","EPOCH":"2026-03-09T22:47:59.920512","MEAN_MOTION":15.31507187,"ECCENTRICITY":0.00067028,"INCLINATION":97.4828,"RA_OF_ASC_NODE":180.1819,"ARG_OF_PERICENTER":41.7877,"MEAN_ANOMALY":318.3875,"EPHEMERIS_TYPE":0,"CLASSIFICATION_TYPE":"U","NORAD_CAT_ID":57012,"ELEMENT_SET_NO":999,"REV_AT_EPOCH":15156,"BSTAR":0.00064525349,"MEAN_MOTION_DOT":0.00019595,"MEAN_MOTION_DDOT":0},{"OBJECT_NAME":"STARLINK-35352","OBJECT_ID":"2025-243A","EPOCH":"2026-03-09T18:10:59.854944","MEAN_MOTION":15.30208384,"ECCENTRICITY":7.361e-5,"INCLINATION":53.159,"RA_OF_ASC_NODE":244.972,"ARG_OF_PERICENTER":66.9614,"MEAN_ANOMALY":293.1464,"EPHEMERIS_TYPE":0,"CLASSIFICATION_TYPE":"U","NORAD_CAT_ID":66177,"ELEMENT_SET_NO":999,"REV_AT_EPOCH":2066,"BSTAR":0.00088636441,"MEAN_MOTION_DOT":0.00025991,"MEAN_MOTION_DDOT":0}]
